{
  "type": "FeatureCollection",
  "features": [
    {
      "type": "Feature",
      "properties": {
        "norad_id": 26766,
        "name": "INTELSAT 10 (IS-10)",
        "group": "intelsat",
        "lat": -4.5229277473886995,
        "lon": -87.81954078035558,
        "alt_km": 36093.849900109606,
        "timestamp": "2025-12-27T06:41:30.566045+00:00",
        "meta_object_name": "INTELSAT 10 (IS-10)",
        "meta_object_id": "2001-019A",
        "meta_epoch": "2025-12-26T18:36:04.420224",
        "meta_mean_motion": 0.99071767,
        "meta_eccentricity": 0.00080732,
        "meta_inclination": 8.6609,
        "meta_ra_of_asc_node": 61.0141,
        "meta_arg_of_pericenter": 230.0856,
        "meta_mean_anomaly": 161.7254,
        "meta_ephemeris_type": 0,
        "meta_classification_type": "U",
        "meta_norad_cat_id": 26766,
        "meta_element_set_no": 999,
        "meta_rev_at_epoch": 4387,
        "meta_bstar": 0,
        "meta_mean_motion_dot": 5.8e-07,
        "meta_mean_motion_ddot": 0,
        "tle_line1": "1 26766U 01019A   25360.77505116  .00000058  00000+0  00000+0 0  9997",
        "tle_line2": "2 26766   8.6609  61.0141 0008073 230.0856 161.7254  0.99071767 43877"
      },
      "geometry": {
        "type": "Point",
        "coordinates": [
          -87.81954078035558,
          -4.5229277473886995
        ]
      }
    },
    {
      "type": "Feature",
      "properties": {
        "norad_id": 26900,
        "name": "INTELSAT 902 (IS-902)",
        "group": "intelsat",
        "lat": 5.424767924227118,
        "lon": 146.02158861453265,
        "alt_km": 35795.78823396332,
        "timestamp": "2025-12-27T06:41:30.566070+00:00",
        "meta_object_name": "INTELSAT 902 (IS-902)",
        "meta_object_id": "2001-039A",
        "meta_epoch": "2025-12-15T13:09:02.081664",
        "meta_mean_motion": 1.0027087,
        "meta_eccentricity": 0.00045028,
        "meta_inclination": 5.6536,
        "meta_ra_of_asc_node": 74.0372,
        "meta_arg_of_pericenter": 189.6359,
        "meta_mean_anomaly": 327.9329,
        "meta_ephemeris_type": 0,
        "meta_classification_type": "U",
        "meta_norad_cat_id": 26900,
        "meta_element_set_no": 999,
        "meta_rev_at_epoch": 8885,
        "meta_bstar": 0,
        "meta_mean_motion_dot": -2.65e-06,
        "meta_mean_motion_ddot": 0,
        "tle_line1": "1 26900U 01039A   25349.54794076 -.00000265  00000+0  00000+0 0  9997",
        "tle_line2": "2 26900   5.6536  74.0372 0004502 189.6359 327.9329  1.00270870 88858"
      },
      "geometry": {
        "type": "Point",
        "coordinates": [
          146.02158861453265,
          5.424767924227118
        ]
      }
    },
    {
      "type": "Feature",
      "properties": {
        "norad_id": 27380,
        "name": "INTELSAT 904 (IS-904)",
        "group": "intelsat",
        "lat": 6.486698145384065,
        "lon": 164.92266093519274,
        "alt_km": 35793.03006089162,
        "timestamp": "2025-12-27T06:41:30.566087+00:00",
        "meta_object_name": "INTELSAT 904 (IS-904)",
        "meta_object_id": "2002-007A",
        "meta_epoch": "2025-12-26T11:10:18.842304",
        "meta_mean_motion": 1.00272441,
        "meta_eccentricity": 0.0002084,
        "meta_inclination": 6.4869,
        "meta_ra_of_asc_node": 71.2729,
        "meta_arg_of_pericenter": 247.9541,
        "meta_mean_anomaly": 272.0829,
        "meta_ephemeris_type": 0,
        "meta_classification_type": "U",
        "meta_norad_cat_id": 27380,
        "meta_element_set_no": 999,
        "meta_rev_at_epoch": 5003,
        "meta_bstar": 0,
        "meta_mean_motion_dot": -2.06e-06,
        "meta_mean_motion_ddot": 0,
        "tle_line1": "1 27380U 02007A   25360.46549586 -.00000206  00000+0  00000+0 0  9999",
        "tle_line2": "2 27380   6.4869  71.2729 0002084 247.9541 272.0829  1.00272441 50038"
      },
      "geometry": {
        "type": "Point",
        "coordinates": [
          164.92266093519274,
          6.486698145384065
        ]
      }
    },
    {
      "type": "Feature",
      "properties": {
        "norad_id": 27426,
        "name": "DIRECTV 5 (TEMPO 1)",
        "group": "intelsat",
        "lat": 0.6944765029273409,
        "lon": 86.24926242142153,
        "alt_km": 35799.98693141098,
        "timestamp": "2025-12-27T06:41:30.566100+00:00",
        "meta_object_name": "DIRECTV 5 (TEMPO 1)",
        "meta_object_id": "2002-023A",
        "meta_epoch": "2025-12-26T13:17:03.638976",
        "meta_mean_motion": 1.00271439,
        "meta_eccentricity": 0.0003446,
        "meta_inclination": 4.4354,
        "meta_ra_of_asc_node": 77.4895,
        "meta_arg_of_pericenter": 206.4307,
        "meta_mean_anomaly": 260.5228,
        "meta_ephemeris_type": 0,
        "meta_classification_type": "U",
        "meta_norad_cat_id": 27426,
        "meta_element_set_no": 999,
        "meta_rev_at_epoch": 8639,
        "meta_bstar": 0,
        "meta_mean_motion_dot": -3.7e-07,
        "meta_mean_motion_ddot": 0,
        "tle_line1": "1 27426U 02023A   25360.55351434 -.00000037  00000+0  00000+0 0  9993",
        "tle_line2": "2 27426   4.4354  77.4895 0003446 206.4307 260.5228  1.00271439 86390"
      },
      "geometry": {
        "type": "Point",
        "coordinates": [
          86.24926242142153,
          0.6944765029273409
        ]
      }
    },
    {
      "type": "Feature",
      "properties": {
        "norad_id": 27438,
        "name": "INTELSAT 905 (IS-905)",
        "group": "intelsat",
        "lat": -1.3709961326542524,
        "lon": 59.31333262398878,
        "alt_km": 35794.454543633125,
        "timestamp": "2025-12-27T06:41:30.566113+00:00",
        "meta_object_name": "INTELSAT 905 (IS-905)",
        "meta_object_id": "2002-027A",
        "meta_epoch": "2025-12-23T05:41:27.377952",
        "meta_mean_motion": 1.00273243,
        "meta_eccentricity": 0.00027491,
        "meta_inclination": 6.3102,
        "meta_ra_of_asc_node": 71.9349,
        "meta_arg_of_pericenter": 206.5226,
        "meta_mean_anomaly": 121.7385,
        "meta_ephemeris_type": 0,
        "meta_classification_type": "U",
        "meta_norad_cat_id": 27438,
        "meta_element_set_no": 999,
        "meta_rev_at_epoch": 4959,
        "meta_bstar": 0,
        "meta_mean_motion_dot": 1.12e-06,
        "meta_mean_motion_ddot": 0,
        "tle_line1": "1 27438U 02027A   25357.23712243  .00000112  00000+0  00000+0 0  9993",
        "tle_line2": "2 27438   6.3102  71.9349 0002749 206.5226 121.7385  1.00273243 49592"
      },
      "geometry": {
        "type": "Point",
        "coordinates": [
          59.31333262398878,
          -1.3709961326542524
        ]
      }
    },
    {
      "type": "Feature",
      "properties": {
        "norad_id": 27445,
        "name": "GALAXY 3C (G-3C)",
        "group": "intelsat",
        "lat": 1.2086792320791604,
        "lon": 101.48439986990356,
        "alt_km": 35784.405367501226,
        "timestamp": "2025-12-27T06:41:30.566126+00:00",
        "meta_object_name": "GALAXY 3C (G-3C)",
        "meta_object_id": "2002-030A",
        "meta_epoch": "2025-12-26T06:43:38.713152",
        "meta_mean_motion": 1.00271267,
        "meta_eccentricity": 9.7e-05,
        "meta_inclination": 3.2955,
        "meta_ra_of_asc_node": 80.3601,
        "meta_arg_of_pericenter": 86.5436,
        "meta_mean_anomaly": 294.1805,
        "meta_ephemeris_type": 0,
        "meta_classification_type": "U",
        "meta_norad_cat_id": 27445,
        "meta_element_set_no": 999,
        "meta_rev_at_epoch": 4476,
        "meta_bstar": 0,
        "meta_mean_motion_dot": -1.32e-06,
        "meta_mean_motion_ddot": 0,
        "tle_line1": "1 27445U 02030A   25360.28030918 -.00000132  00000+0  00000+0 0  9999",
        "tle_line2": "2 27445   3.2955  80.3601 0000970  86.5436 294.1805  1.00271267 44760"
      },
      "geometry": {
        "type": "Point",
        "coordinates": [
          101.48439986990356,
          1.2086792320791604
        ]
      }
    },
    {
      "type": "Feature",
      "properties": {
        "norad_id": 27513,
        "name": "INTELSAT 906 (IS-906)",
        "group": "intelsat",
        "lat": -0.5227920677581485,
        "lon": -99.53144128629636,
        "alt_km": 35761.43851649238,
        "timestamp": "2025-12-27T06:41:30.566137+00:00",
        "meta_object_name": "INTELSAT 906 (IS-906)",
        "meta_object_id": "2002-041A",
        "meta_epoch": "2025-12-26T18:28:14.405088",
        "meta_mean_motion": 1.00271072,
        "meta_eccentricity": 0.0006168,
        "meta_inclination": 5.3657,
        "meta_ra_of_asc_node": 75.0649,
        "meta_arg_of_pericenter": 203.0067,
        "meta_mean_anomaly": 158.6263,
        "meta_ephemeris_type": 0,
        "meta_classification_type": "U",
        "meta_norad_cat_id": 27513,
        "meta_element_set_no": 999,
        "meta_rev_at_epoch": 8530,
        "meta_bstar": 0,
        "meta_mean_motion_dot": 3.3e-07,
        "meta_mean_motion_ddot": 0,
        "tle_line1": "1 27513U 02041A   25360.76961117  .00000033  00000+0  00000+0 0  9993",
        "tle_line2": "2 27513   5.3657  75.0649 0006168 203.0067 158.6263  1.00271072 85303"
      },
      "geometry": {
        "type": "Point",
        "coordinates": [
          -99.53144128629636,
          -0.5227920677581485
        ]
      }
    }
  ]
}